0 FENGYUN 1C DEB
1 29888U 99025GJ  13281.46831201  .00000295  00000-0  12600-3 0  8380
2 29888 099.0351 352.4727 0300597 004.8736 060.2984 14.11189030346589
0 FENGYUN 1C DEB
1 29888U 99025GJ  13282.82538015  .00000315  00000-0  13308-3 0  8398
2 29888 099.0352 353.8404 0300524 001.0392 114.6005 14.11191265346776
0 FENGYUN 1C DEB
1 29888U 99025GJ  13284.15530471  .00000401  00000-0  16437-3 0  8408
2 29888 099.0352 355.1809 0300470 357.2866 031.0072 14.11192207346966
0 FENGYUN 1C DEB
1 29888U 99025GJ  13285.67110426  .00000345  00000-0  14427-3 0  8415
2 29888 099.0350 356.7086 0300379 353.0081 171.7206 14.11193335347177
0 FENGYUN 1C DEB
1 29888U 99025GJ  13286.79470405  .00000385  00000-0  15897-3 0  8422
2 29888 099.0348 357.8411 0300340 349.8344 119.9501 14.11194276347336
0 FENGYUN 1C DEB
1 29888U 99025GJ  13288.20230193  .00000542  00000-0  21600-3 0  8433
2 29888 099.0345 359.2599 0300284 345.8623 070.9767 14.11196839347538
0 FENGYUN 1C DEB
1 29888U 99025GJ  13289.84609434  .00000467  00000-0  18874-3 0  8448
2 29888 099.0340 000.9167 0300215 341.2200 141.9635 14.11198519347764
0 FENGYUN 1C DEB
1 29888U 99025GJ  13291.17880794  .00000506  00000-0  20300-3 0  8459
2 29888 099.0337 002.2600 0300165 337.4583 072.5781 14.11199599347953
0 FENGYUN 1C DEB
1 29888U 99025GJ  13292.69056288  .00000570  00000-0  22641-3 0  8462
2 29888 099.0335 003.7837 0300102 333.1869 192.7926 14.11200911348161
0 FENGYUN 1C DEB
1 29888U 99025GJ  13293.81516823  .00000646  00000-0  25419-3 0  8474
2 29888 099.0334 004.9171 0300085 330.0060 146.1674 14.11202116348323
0 FENGYUN 1C DEB
1 29888U 99025GJ  13295.15022442  .00000630  00000-0  24813-3 0  8483
2 29888 099.0333 006.2625 0300055 326.2337 088.7034 14.11204411348514
